ONEWEB-0628             
1 55169U 23004AF  24320.15406774  .00000150  00000+0  38078-3 0  9994
2 55169  87.8857 105.9456 0001931 120.1412 239.9908 13.12444550 92084
ONEWEB-0629             
1 55170U 23004AG  24320.17614715 -.00000111  00000+0 -31868-3 0  9993
2 55170  87.9069 121.2123 0001974  98.3234 261.8121 13.17650922 91334
ONEWEB-0631             
1 55171U 23004AH  24319.93570547  .00000070  00000+0  14473-3 0  9995
2 55171  87.9098  90.6853 0001023 104.7136 255.4110 13.18687719 93338
ONEWEB-0709             
1 55172U 23004AJ  24319.57777938  .00000319  00000+0  86410-3 0  9995
2 55172  87.8881 136.5806 0000955  48.5984 311.5226 13.11415255 89902
ONEWEB-0710             
1 55173U 23004AK  24319.50706004  .00000032  00000+0  49596-4 0  9992
2 55173  87.9069 121.3686 0001545  97.3084 262.8223 13.17646971 91241
ONEWEB-0711             
1 55174U 23004AL  24319.47265207  .00000215  00000+0  57070-3 0  9992
2 55174  87.8882 136.5703 0001558 121.9616 238.1663 13.11420430 89853
ONEWEB-0713             
1 55175U 23004AM  24319.56760596  .00000551  00000+0  15183-2 0  9995
2 55175  87.8881 136.5592 0001520 102.5472 257.5826 13.11418212 89854
ONEWEB-0715             
1 55176U 23004AN  24320.02029842  .00000563  00000+0  15532-2 0  9992
2 55176  87.8880 136.4694 0001126  87.1995 272.9262 13.11418976 89960
